{
  "type": "FeatureCollection",
  "features": [
    {
      "type": "Feature",
      "properties": {
        "norad_id": 43260,
        "name": "GAOFEN-1 03",
        "group": "resource",
        "lat": -1.4890554280204993,
        "lon": -138.9265960844941,
        "alt_km": 645.2300835615215,
        "timestamp": "2025-12-09T14:52:25.823570+00:00",
        "meta_object_name": "GAOFEN-1 03",
        "meta_object_id": "2018-031B",
        "meta_epoch": "2025-12-09T07:32:55.201056",
        "meta_mean_motion": 14.76426661,
        "meta_eccentricity": 0.00022131,
        "meta_inclination": 98.0803,
        "meta_ra_of_asc_node": 40.9797,
        "meta_arg_of_pericenter": 337.0066,
        "meta_mean_anomaly": 23.1044,
        "meta_ephemeris_type": 0,
        "meta_classification_type": "U",
        "meta_norad_cat_id": 43260,
        "meta_element_set_no": 999,
        "meta_rev_at_epoch": 41467,
        "meta_bstar": 0.00025865084,
        "meta_mean_motion_dot": 1.747e-05,
        "meta_mean_motion_ddot": 0,
        "tle_line1": "1 43260U 18031B   25343.31452779  .00001747  00000+0  25865-3 0  9990",
        "tle_line2": "2 43260  98.0803  40.9797 0002213 337.0066  23.1044 14.76426661414673"
      },
      "geometry": {
        "type": "Point",
        "coordinates": [
          -138.9265960844941,
          -1.4890554280204993
        ]
      }
    },
    {
      "type": "Feature",
      "properties": {
        "norad_id": 43262,
        "name": "GAOFEN-1 04",
        "group": "resource",
        "lat": -48.80903798094801,
        "lon": 50.79691215593493,
        "alt_km": 647.6734432176827,
        "timestamp": "2025-12-09T14:52:25.823581+00:00",
        "meta_object_name": "GAOFEN-1 04",
        "meta_object_id": "2018-031D",
        "meta_epoch": "2025-12-09T06:57:53.769888",
        "meta_mean_motion": 14.76439149,
        "meta_eccentricity": 0.00011902,
        "meta_inclination": 98.0808,
        "meta_ra_of_asc_node": 41.1244,
        "meta_arg_of_pericenter": 56.9922,
        "meta_mean_anomaly": 303.1402,
        "meta_ephemeris_type": 0,
        "meta_classification_type": "U",
        "meta_norad_cat_id": 43262,
        "meta_element_set_no": 999,
        "meta_rev_at_epoch": 41466,
        "meta_bstar": 0.00021548514,
        "meta_mean_motion_dot": 1.447e-05,
        "meta_mean_motion_ddot": 0,
        "tle_line1": "1 43262U 18031D   25343.29020567  .00001447  00000+0  21549-3 0  9997",
        "tle_line2": "2 43262  98.0808  41.1244 0001190  56.9922 303.1402 14.76439149414664"
      },
      "geometry": {
        "type": "Point",
        "coordinates": [
          50.79691215593493,
          -48.80903798094801
        ]
      }
    },
    {
      "type": "Feature",
      "properties": {
        "norad_id": 43437,
        "name": "SENTINEL-3B",
        "group": "resource",
        "lat": -44.7895582023224,
        "lon": 57.517201997098546,
        "alt_km": 810.281573922297,
        "timestamp": "2025-12-09T14:52:25.823591+00:00",
        "meta_object_name": "SENTINEL-3B",
        "meta_object_id": "2018-039A",
        "meta_epoch": "2025-12-09T04:59:16.128384",
        "meta_mean_motion": 14.26741015,
        "meta_eccentricity": 0.00015345,
        "meta_inclination": 98.627,
        "meta_ra_of_asc_node": 48.4435,
        "meta_arg_of_pericenter": 106.2846,
        "meta_mean_anomaly": 253.8504,
        "meta_ephemeris_type": 0,
        "meta_classification_type": "U",
        "meta_norad_cat_id": 43437,
        "meta_element_set_no": 999,
        "meta_rev_at_epoch": 39703,
        "meta_bstar": 0.00013961688,
        "meta_mean_motion_dot": 2.94e-06,
        "meta_mean_motion_ddot": 0,
        "tle_line1": "1 43437U 18039A   25343.20782556  .00000294  00000+0  13962-3 0  9992",
        "tle_line2": "2 43437  98.6270  48.4435 0001534 106.2846 253.8504 14.26741015397033"
      },
      "geometry": {
        "type": "Point",
        "coordinates": [
          57.517201997098546,
          -44.7895582023224
        ]
      }
    },
    {
      "type": "Feature",
      "properties": {
        "norad_id": 43461,
        "name": "GAOFEN-5 01",
        "group": "resource",
        "lat": -71.88802309662695,
        "lon": -26.498213180633513,
        "alt_km": 698.811951443412,
        "timestamp": "2025-12-09T14:52:25.823602+00:00",
        "meta_object_name": "GAOFEN-5 01",
        "meta_object_id": "2018-043A",
        "meta_epoch": "2025-12-09T03:42:04.749696",
        "meta_mean_motion": 14.604036,
        "meta_eccentricity": 0.00012017,
        "meta_inclination": 98.432,
        "meta_ra_of_asc_node": 306.0589,
        "meta_arg_of_pericenter": 354.0003,
        "meta_mean_anomaly": 6.1182,
        "meta_ephemeris_type": 0,
        "meta_classification_type": "U",
        "meta_norad_cat_id": 43461,
        "meta_element_set_no": 999,
        "meta_rev_at_epoch": 40395,
        "meta_bstar": 0.00017879054,
        "meta_mean_motion_dot": 8.17e-06,
        "meta_mean_motion_ddot": 0,
        "tle_line1": "1 43461U 18043A   25343.15422164  .00000817  00000+0  17879-3 0  9996",
        "tle_line2": "2 43461  98.4320 306.0589 0001201 354.0003   6.1182 14.60403600403959"
      },
      "geometry": {
        "type": "Point",
        "coordinates": [
          -26.498213180633513,
          -71.88802309662695
        ]
      }
    },
    {
      "type": "Feature",
      "properties": {
        "norad_id": 43484,
        "name": "GAOFEN-6",
        "group": "resource",
        "lat": 76.81797985715625,
        "lon": -96.17092614528437,
        "alt_km": 624.7594680540406,
        "timestamp": "2025-12-09T14:52:25.823613+00:00",
        "meta_object_name": "GAOFEN-6",
        "meta_object_id": "2018-048A",
        "meta_epoch": "2025-12-09T07:54:54.554112",
        "meta_mean_motion": 14.76555086,
        "meta_eccentricity": 0.00132896,
        "meta_inclination": 97.8032,
        "meta_ra_of_asc_node": 47.7112,
        "meta_arg_of_pericenter": 73.3622,
        "meta_mean_anomaly": 286.9047,
        "meta_ephemeris_type": 0,
        "meta_classification_type": "U",
        "meta_norad_cat_id": 43484,
        "meta_element_set_no": 999,
        "meta_rev_at_epoch": 40537,
        "meta_bstar": 0.00012931235,
        "meta_mean_motion_dot": 8.54e-06,
        "meta_mean_motion_ddot": 0,
        "tle_line1": "1 43484U 18048A   25343.32979808  .00000854  00000+0  12931-3 0  9992",
        "tle_line2": "2 43484  97.8032  47.7112 0013289  73.3622 286.9047 14.76555086405374"
      },
      "geometry": {
        "type": "Point",
        "coordinates": [
          -96.17092614528437,
          76.81797985715625
        ]
      }
    },
    {
      "type": "Feature",
      "properties": {
        "norad_id": 43585,
        "name": "GAOFEN-11 01",
        "group": "resource",
        "lat": 6.630660532927207,
        "lon": -132.58255211894905,
        "alt_km": 424.46184288069617,
        "timestamp": "2025-12-09T14:52:25.823623+00:00",
        "meta_object_name": "GAOFEN-11 01",
        "meta_object_id": "2018-063A",
        "meta_epoch": "2025-12-09T07:55:37.169184",
        "meta_mean_motion": 15.49072208,
        "meta_eccentricity": 0.00045758,
        "meta_inclination": 97.1555,
        "meta_ra_of_asc_node": 46.2937,
        "meta_arg_of_pericenter": 329.6021,
        "meta_mean_anomaly": 30.4965,
        "meta_ephemeris_type": 0,
        "meta_classification_type": "U",
        "meta_norad_cat_id": 43585,
        "meta_element_set_no": 999,
        "meta_rev_at_epoch": 41089,
        "meta_bstar": 0.00037611498,
        "meta_mean_motion_dot": 0.00020344,
        "meta_mean_motion_ddot": 0,
        "tle_line1": "1 43585U 18063A   25343.33029131  .00020344  00000+0  37611-3 0  9995",
        "tle_line2": "2 43585  97.1555  46.2937 0004575 329.6021  30.4965 15.49072208410891"
      },
      "geometry": {
        "type": "Point",
        "coordinates": [
          -132.58255211894905,
          6.630660532927207
        ]
      }
    },
    {
      "type": "Feature",
      "properties": {
        "norad_id": 43613,
        "name": "ICESAT-2",
        "group": "resource",
        "lat": 35.988236905880676,
        "lon": 61.352586201396484,
        "alt_km": 477.1857339452372,
        "timestamp": "2025-12-09T14:52:25.823633+00:00",
        "meta_object_name": "ICESAT-2",
        "meta_object_id": "2018-070A",
        "meta_epoch": "2025-12-09T06:23:19.508928",
        "meta_mean_motion": 15.28259026,
        "meta_eccentricity": 0.00022311,
        "meta_inclination": 92.0044,
        "meta_ra_of_asc_node": 239.7998,
        "meta_arg_of_pericenter": 157.9495,
        "meta_mean_anomaly": 202.1851,
        "meta_ephemeris_type": 0,
        "meta_classification_type": "U",
        "meta_norad_cat_id": 43613,
        "meta_element_set_no": 999,
        "meta_rev_at_epoch": 40345,
        "meta_bstar": 0.00059975684,
        "meta_mean_motion_dot": 0.00016519,
        "meta_mean_motion_ddot": 0,
        "tle_line1": "1 43613U 18070A   25343.26619802  .00016519  00000+0  59976-3 0  9994",
        "tle_line2": "2 43613  92.0044 239.7998 0002231 157.9495 202.1851 15.28259026403458"
      },
      "geometry": {
        "type": "Point",
        "coordinates": [
          61.352586201396484,
          35.988236905880676
        ]
      }
    }
  ]
}